[{"OBJECT_NAME":"LEMUR-2-ANDIS","OBJECT_ID":"2017-042P","EPOCH":"2026-03-09T13:25:33.116448","MEAN_MOTION":15.30557934,"ECCENTRICITY":0.0009101,"INCLINATION":97.3659,"RA_OF_ASC_NODE":249.795,"ARG_OF_PERICENTER":4.3248,"MEAN_ANOMALY":355.807,"EPHEMERIS_TYPE":0,"CLASSIFICATION_TYPE":"U","NORAD_CAT_ID":42838,"ELEMENT_SET_NO":999,"REV_AT_EPOCH":47319,"BSTAR":0.00079875,"MEAN_MOTION_DOT":0.00023598,"MEAN_MOTION_DDOT":0},{"OBJECT_NAME":"STARLINK-34118","OBJECT_ID":"2025-095L","EPOCH":"2026-03-08T08:52:22.283040","MEAN_MOTION":15.27531579,"ECCENTRICITY":0.00012975,"INCLINATION":43.001,"RA_OF_ASC_NODE":183.8764,"ARG_OF_PERICENTER":293.2376,"MEAN_ANOMALY":66.8339,"EPHEMERIS_TYPE":0,"CLASSIFICATION_TYPE":"U","NORAD_CAT_ID":63900,"ELEMENT_SET_NO":999,"REV_AT_EPOCH":4758,"BSTAR":0.0010711784,"MEAN_MOTION_DOT":0.00029288,"MEAN_MOTION_DDOT":0}]
